OBJECT_NAME,OBJECT_ID,EPOCH,MEAN_MOTION,ECCENTRICITY,INCLINATION,RA_OF_ASC_NODE,ARG_OF_PERICENTER,MEAN_ANOMALY,EPHEMERIS_TYPE,CLASSIFICATION_TYPE,NORAD_CAT_ID,ELEMENT_SET_NO,REV_AT_EPOCH,BSTAR,MEAN_MOTION_DOT,MEAN_MOTION_DDOT
JCSAT-3A,2006-033A,2026-07-13T05:31:05.626272,1.00277450,.000202,0.0121,340.5163,141.8792,19.4972,0,U,29272,999,4800,0,-.347E-5,0
KOREASAT 5 (MUGUNGWHA 5),2006-034A,2026-07-13T14:00:03.566304,1.00270473,.00017893,1.8509,82.6623,81.7866,90.0802,0,U,29349,999,4158,0,-.364E-5,0
DIRECTV 9S,2006-043A,2026-07-13T14:41:40.428672,1.00270968,.00049802,2.4866,80.5834,33.6288,296.4892,0,U,29494,999,5164,0,-.12E-5,0
OPTUS D1,2006-043B,2026-07-13T14:11:13.347744,1.00270121,.00033068,3.1003,79.3310,31.2251,185.6727,0,U,29495,999,7238,0,-.191E-5,0
BADR-4,2006-051A,2026-07-13T13:37:37.405920,1.00270316,.00047071,2.0705,80.8297,29.3199,60.1451,0,U,29526,999,5153,0,.15E-5,0
WILDBLUE-1,2006-054A,2026-07-13T14:38:48.204096,1.00271078,.00012468,2.8689,80.1510,37.8425,281.9812,0,U,29643,999,5405,0,-.56E-6,0
SKYNET 5A,2007-007B,2026-07-13T13:55:04.045152,1.00269968,.00036995,5.3651,73.4181,42.6342,119.3769,0,U,30794,999,7096,0,-.28E-5,0
ANIK F3,2007-009A,2026-07-13T14:36:40.908384,1.00270759,.00024155,1.2635,83.5318,27.1880,281.2090,0,U,31102,999,4682,0,-.6E-7,0
ASTRA 1L,2007-016A,2026-07-13T11:37:57.398304,1.00271336,.00051641,1.3873,81.3655,33.3921,326.5844,0,U,31306,999,4524,0,-.189E-5,0
GALAXY 17 (G-17),2007-016B,2026-07-13T07:59:38.927616,1.00270253,.00035488,3.0354,79.5702,34.5905,211.9325,0,U,31307,999,7006,0,-.212E-5,0
INTELSAT 11 (IS-11),2007-044B,2026-07-13T06:40:18.768000,0.99051585,.0004116,3.6309,78.3524,100.7185,223.1796,0,U,32253,999,6870,0,-.118E-5,0
WGS F1 (USA 195),2007-046A,2026-07-13T11:33:05.363712,1.00269562,.00004305,0.0152,66.1958,163.8151,192.1169,0,U,32258,999,5259,0,-.271E-5,0
SKYNET 5B,2007-056B,2026-07-13T07:51:38.726784,1.00273791,.00037293,5.3162,73.1915,40.7943,320.2204,0,U,32294,999,6846,0,.132E-5,0
ASTRA 4A,2007-057A,2026-07-13T15:09:38.797056,1.00270779,.00022495,0.0443,283.6535,195.2782,44.7734,0,U,32299,999,5191,0,.28E-6,0
HORIZONS-2,2007-063B,2026-07-13T13:06:47.860992,1.00269681,.00035188,2.6677,80.3024,19.2771,314.7354,0,U,32388,999,6807,0,-.26E-5,0
THURAYA-3,2008-001A,2026-07-13T14:44:38.885280,1.00271389,.00020954,6.0329,35.8190,76.8734,103.6475,0,U,32404,999,6775,0,.2E-7,0
THOR 5,2008-006A,2026-07-13T08:19:41.708928,1.00270867,.00022732,0.0534,235.3925,245.8359,294.1590,0,U,32487,999,6757,0,-.12E-6,0
AMC-14,2008-011A,2026-07-13T13:13:38.786304,1.00420259,.00392582,24.0406,20.2013,8.4498,179.0681,0,U,32708,999,6843,0,-.18E-5,0
DIRECTV 11,2008-013A,2026-07-13T14:42:10.380960,1.00271811,.00001156,0.0109,269.6737,300.2834,202.8868,0,U,32729,999,4585,0,-.13E-5,0
ICO G1,2008-016A,2026-07-13T12:21:38.618784,1.00269278,.00024136,5.5301,36.0556,63.7375,284.1531,0,U,32763,999,6680,0,-.179E-5,0
VINASAT-1,2008-018A,2026-07-13T12:22:52.744800,1.00270032,.00014047,0.0324,296.3012,196.6072,116.1408,0,U,32767,999,6685,0,-.332E-5,0
STAR ONE C2,2008-018B,2026-07-13T13:09:17.621568,1.00271372,.00026757,1.3053,82.2142,46.7395,294.7887,0,U,32768,999,6691,0,-.282E-5,0
AMOS-3,2008-022A,2026-07-13T13:44:29.247072,1.00487650,.00029862,0.5210,85.8291,84.9770,25.7520,0,U,32794,999,8260,0,.11E-6,0
GALAXY 18 (G-18),2008-024A,2026-07-13T14:35:26.027232,1.00270977,.00028062,0.0179,40.7393,85.0093,261.5857,0,U,32951,999,4611,0,.21E-6,0
ZHONGXING-9,2008-028A,2026-07-13T13:54:11.628864,1.00269830,.00032611,0.8329,85.0000,23.4380,123.9312,0,U,33051,999,6630,0,-.253E-5,0
SKYNET 5C,2008-030A,2026-07-13T09:57:25.913664,1.00272337,.00040384,3.8535,76.7282,45.0874,301.0284,0,U,33055,999,6621,0,-.147E-5,0
TURKSAT 3A,2008-030B,2026-07-13T13:39:52.189920,1.00269374,.00048929,0.0305,70.8569,22.6786,84.8567,0,U,33056,999,5262,0,.142E-5,0
ECHOSTAR 11,2008-035A,2026-07-13T14:39:10.668096,1.00270615,.00021762,1.0712,83.8744,17.6722,299.9284,0,U,33207,999,5147,0,-.63E-6,0
SUPERBIRD-C2,2008-038A,2026-07-13T14:06:36.290592,1.00269646,.00061312,2.4267,80.9350,39.5968,158.5762,0,U,33274,999,10599,0,-.313E-5,0
INMARSAT 4-F3,2008-039A,2026-07-13T10:00:33.105312,1.00272527,.00028064,4.3147,31.6906,83.9617,227.7818,0,U,33278,999,4680,0,-.146E-5,0
NIMIQ 4,2008-044A,2026-07-13T14:47:09.902976,1.00268098,.00019185,0.0398,71.1446,43.4798,316.6889,0,U,33373,999,6524,0,0,0
GALAXY 19 (G-19),2008-045A,2026-07-13T14:42:47.820672,1.00272752,.00022888,0.0619,250.2914,234.3457,290.5499,0,U,33376,999,6516,0,-.143E-5,0
